{
    "links": {
        "self": "http://www.neowsapp.com/rest/v1/neo/54051165?api_key=iIulBulltgU6a56xZRHN4H3l9WmuAYTsLGpBGhQ2"
    },
    "id": "54051165",
    "neo_reference_id": "54051165",
    "name": "(2020 PH6)",
    "designation": "2020 PH6",
    "nasa_jpl_url": "http://ssd.jpl.nasa.gov/sbdb.cgi?sstr=54051165",
    "absolute_magnitude_h": 25.752,
    "estimated_diameter": {
        "kilometers": {
            "estimated_diameter_min": 0.0187998756,
            "estimated_diameter_max": 0.0420377999
        },
        "meters": {
            "estimated_diameter_min": 18.7998756471,
            "estimated_diameter_max": 42.0377999155
        },
        "miles": {
            "estimated_diameter_min": 0.0116816975,
            "estimated_diameter_max": 0.0261210698
        },
        "feet": {
            "estimated_diameter_min": 61.6793840181,
            "estimated_diameter_max": 137.9192954747
        }
    },
    "is_potentially_hazardous_asteroid": false,
    "close_approach_data": [
        {
            "close_approach_date": "2020-09-22",
            "close_approach_date_full": "2020-Sep-22 01:32",
            "epoch_date_close_approach": 1600738320000,
            "relative_velocity": {
                "kilometers_per_second": "6.2281138521",
                "kilometers_per_hour": "22421.2098676699",
                "miles_per_hour": "13931.6678758308"
            },
            "miss_distance": {
                "astronomical": "0.1005388401",
                "lunar": "39.1096087989",
                "kilometers": "15040396.331230587",
                "miles": "9345668.9158006206"
            },
            "orbiting_body": "Earth"
        }
    ],
    "orbital_data": {
        "orbit_id": "2",
        "orbit_determination_date": "2020-09-15 06:55:33",
        "first_observation_date": "2020-08-14",
        "last_observation_date": "2020-09-14",
        "data_arc_in_days": 31,
        "observations_used": 21,
        "orbit_uncertainty": "7",
        "minimum_orbit_intersection": ".0940687",
        "jupiter_tisserand_invariant": "3.560",
        "epoch_osculation": "2459000.5",
        "eccentricity": ".4907357506339765",
        "semi_major_axis": "2.123467872287419",
        "inclination": "4.367008215952373",
        "ascending_node_longitude": "152.5021486397727",
        "orbital_period": "1130.230359190341",
        "perihelion_distance": "1.08140627203332",
        "perihelion_argument": "220.9374254437368",
        "aphelion_distance": "3.165529472541518",
        "perihelion_time": "2459125.987326060264",
        "mean_anomaly": "320.0298850456846",
        "mean_motion": ".318519138220541",
        "equinox": "J2000",
        "orbit_class": {
            "orbit_class_type": "AMO",
            "orbit_class_description": "Near-Earth asteroid orbits similar to that of 1221 Amor",
            "orbit_class_range": "1.017 AU < q (perihelion) < 1.3 AU"
        }
    },
    "is_sentry_object": false
}